[{"OBJECT_NAME":"STARLINK-1912","OBJECT_ID":"2020-088BJ","EPOCH":"2026-03-09T00:10:17.079168","MEAN_MOTION":15.55634663,"ECCENTRICITY":0.00082154,"INCLINATION":53.0525,"RA_OF_ASC_NODE":284.7515,"ARG_OF_PERICENTER":157.4332,"MEAN_ANOMALY":202.7041,"EPHEMERIS_TYPE":0,"CLASSIFICATION_TYPE":"U","NORAD_CAT_ID":47178,"ELEMENT_SET_NO":999,"REV_AT_EPOCH":29201,"BSTAR":0.0016669188,"MEAN_MOTION_DOT":0.00117861,"MEAN_MOTION_DDOT":0},{"OBJECT_NAME":"STARLINK-36601","OBJECT_ID":"2026-020B","EPOCH":"2026-03-09T22:00:01.999584","MEAN_MOTION":15.68236103,"ECCENTRICITY":0.00012387,"INCLINATION":42.9992,"RA_OF_ASC_NODE":140.3557,"ARG_OF_PERICENTER":284.2065,"MEAN_ANOMALY":191.4822,"EPHEMERIS_TYPE":0,"CLASSIFICATION_TYPE":"U","NORAD_CAT_ID":67618,"ELEMENT_SET_NO":999,"REV_AT_EPOCH":604,"BSTAR":-0.019358598,"MEAN_MOTION_DOT":-0.01967979,"MEAN_MOTION_DDOT":0}]
